TRANSPORTER-12 OBJECT AZ
1 62656U 25009AZ  26068.71026235  .00016057  00000+0  54903-3 0  9991
2 62656  97.3981 151.9913 0000987  45.3581 314.7740 15.30349724 63792
STARLINK-32798          
1 63029U 25034A   26068.85037669  .00029759  00000+0  10128-2 0  9995
2 63029  53.1575 270.0070 0000822  70.6061 289.5028 15.30200436 58939
